CCSDS_OMM_VERS = 2.0
CREATION_DATE  = 
ORIGINATOR     = 

OBJECT_NAME    = STARLINK-35844
OBJECT_ID      = 2025-283C
CENTER_NAME    = EARTH
REF_FRAME      = TEME
TIME_SYSTEM    = UTC
MEAN_ELEMENT_THEORY = SGP/SGP4

EPOCH          = 2025-12-24T20:00:01.000224
MEAN_MOTION    = 15.63631074
ECCENTRICITY   = .0001384
INCLINATION    = 53.1601
RA_OF_ASC_NODE = 13.4918
ARG_OF_PERICENTER = 95.3074
MEAN_ANOMALY   = 152.5381

EPHEMERIS_TYPE = 0
CLASSIFICATION_TYPE = U
NORAD_CAT_ID   = 66880
ELEMENT_SET_NO = 999
REV_AT_EPOCH   = 437
BSTAR          = -.23552E-1
MEAN_MOTION_DOT = -.1967448E-1
MEAN_MOTION_DDOT = 0

CCSDS_OMM_VERS = 2.0
CREATION_DATE  = 
ORIGINATOR     = 

OBJECT_NAME    = STARLINK-35860
OBJECT_ID      = 2025-283D
CENTER_NAME    = EARTH
REF_FRAME      = TEME
TIME_SYSTEM    = UTC
MEAN_ELEMENT_THEORY = SGP/SGP4

EPOCH          = 2025-12-24T20:00:01.000224
MEAN_MOTION    = 15.63627348
ECCENTRICITY   = .0001485
INCLINATION    = 53.1600
RA_OF_ASC_NODE = 13.4833
ARG_OF_PERICENTER = 92.8342
MEAN_ANOMALY   = 158.8454

EPHEMERIS_TYPE = 0
CLASSIFICATION_TYPE = U
NORAD_CAT_ID   = 66881
ELEMENT_SET_NO = 999
REV_AT_EPOCH   = 437
BSTAR          = -.23482E-1
MEAN_MOTION_DOT = -.1962103E-1
MEAN_MOTION_DDOT = 0

CCSDS_OMM_VERS = 2.0
CREATION_DATE  = 
ORIGINATOR     = 

OBJECT_NAME    = STARLINK-35912
OBJECT_ID      = 2025-283E
CENTER_NAME    = EARTH
REF_FRAME      = TEME
TIME_SYSTEM    = UTC
MEAN_ELEMENT_THEORY = SGP/SGP4

EPOCH          = 2025-12-24T20:00:01.000224
MEAN_MOTION    = 15.63634301
ECCENTRICITY   = .0001407
INCLINATION    = 53.1602
RA_OF_ASC_NODE = 13.4805
ARG_OF_PERICENTER = 91.3934
MEAN_ANOMALY   = 162.2004

EPHEMERIS_TYPE = 0
CLASSIFICATION_TYPE = U
NORAD_CAT_ID   = 66882
ELEMENT_SET_NO = 999
REV_AT_EPOCH   = 437
BSTAR          = -.23628E-1
MEAN_MOTION_DOT = -.1973271E-1
MEAN_MOTION_DDOT = 0

CCSDS_OMM_VERS = 2.0
CREATION_DATE  = 
ORIGINATOR     = 

OBJECT_NAME    = STARLINK-35947
OBJECT_ID      = 2025-283F
CENTER_NAME    = EARTH
REF_FRAME      = TEME
TIME_SYSTEM    = UTC
MEAN_ELEMENT_THEORY = SGP/SGP4

EPOCH          = 2025-12-24T20:00:01.000224
MEAN_MOTION    = 15.63630334
ECCENTRICITY   = .0001284
INCLINATION    = 53.1601
RA_OF_ASC_NODE = 13.4763
ARG_OF_PERICENTER = 92.7960
MEAN_ANOMALY   = 162.7171

EPHEMERIS_TYPE = 0
CLASSIFICATION_TYPE = U
NORAD_CAT_ID   = 66883
ELEMENT_SET_NO = 999
REV_AT_EPOCH   = 442
BSTAR          = -.23549E-1
MEAN_MOTION_DOT = -.1967074E-1
MEAN_MOTION_DDOT = 0

CCSDS_OMM_VERS = 2.0
CREATION_DATE  = 
ORIGINATOR     = 

OBJECT_NAME    = STARLINK-36057
OBJECT_ID      = 2025-283G
CENTER_NAME    = EARTH
REF_FRAME      = TEME
TIME_SYSTEM    = UTC
MEAN_ELEMENT_THEORY = SGP/SGP4

EPOCH          = 2025-12-24T20:00:01.000224
MEAN_MOTION    = 15.63637948
ECCENTRICITY   = .0001376
INCLINATION    = 53.1599
RA_OF_ASC_NODE = 13.4680
ARG_OF_PERICENTER = 92.4371
MEAN_ANOMALY   = 166.9098

EPHEMERIS_TYPE = 0
CLASSIFICATION_TYPE = U
NORAD_CAT_ID   = 66884
ELEMENT_SET_NO = 999
REV_AT_EPOCH   = 437
BSTAR          = -.23746E-1
MEAN_MOTION_DOT = -.1982181E-1
MEAN_MOTION_DDOT = 0

CCSDS_OMM_VERS = 2.0
CREATION_DATE  = 
ORIGINATOR     = 

OBJECT_NAME    = STARLINK-35954
OBJECT_ID      = 2025-283H
CENTER_NAME    = EARTH
REF_FRAME      = TEME
TIME_SYSTEM    = UTC
MEAN_ELEMENT_THEORY = SGP/SGP4

EPOCH          = 2025-12-24T20:00:01.000224
MEAN_MOTION    = 15.63630959
ECCENTRICITY   = .0001437
INCLINATION    = 53.1600
RA_OF_ASC_NODE = 13.4718
ARG_OF_PERICENTER = 94.3379
MEAN_ANOMALY   = 163.0967

EPHEMERIS_TYPE = 0
CLASSIFICATION_TYPE = U
NORAD_CAT_ID   = 66885
ELEMENT_SET_NO = 999
REV_AT_EPOCH   = 437
BSTAR          = -.23639E-1
MEAN_MOTION_DOT = -.1973868E-1
MEAN_MOTION_DDOT = 0

CCSDS_OMM_VERS = 2.0
CREATION_DATE  = 
ORIGINATOR     = 

OBJECT_NAME    = STARLINK-35900
OBJECT_ID      = 2025-283J
CENTER_NAME    = EARTH
REF_FRAME      = TEME
TIME_SYSTEM    = UTC
MEAN_ELEMENT_THEORY = SGP/SGP4

EPOCH          = 2025-12-24T20:00:01.000224
MEAN_MOTION    = 15.63636835
ECCENTRICITY   = .0001481
INCLINATION    = 53.1601
RA_OF_ASC_NODE = 13.4632
ARG_OF_PERICENTER = 92.5500
MEAN_ANOMALY   = 168.7152

EPHEMERIS_TYPE = 0
CLASSIFICATION_TYPE = U
NORAD_CAT_ID   = 66886
ELEMENT_SET_NO = 999
REV_AT_EPOCH   = 437
BSTAR          = -.23741E-1
MEAN_MOTION_DOT = -.1981767E-1
MEAN_MOTION_DDOT = 0

CCSDS_OMM_VERS = 2.0
CREATION_DATE  = 
ORIGINATOR     = 

OBJECT_NAME    = STARLINK-35925
OBJECT_ID      = 2025-283K
CENTER_NAME    = EARTH
REF_FRAME      = TEME
TIME_SYSTEM    = UTC
MEAN_ELEMENT_THEORY = SGP/SGP4

EPOCH          = 2025-12-24T20:00:01.000224
MEAN_MOTION    = 15.63633174
ECCENTRICITY   = .0001347
INCLINATION    = 53.1602
RA_OF_ASC_NODE = 13.4596
ARG_OF_PERICENTER = 97.1051
MEAN_ANOMALY   = 166.0745

EPHEMERIS_TYPE = 0
CLASSIFICATION_TYPE = U
NORAD_CAT_ID   = 66887
ELEMENT_SET_NO = 999
REV_AT_EPOCH   = 437
BSTAR          = -.23605E-1
MEAN_MOTION_DOT = -.1971475E-1
MEAN_MOTION_DDOT = 0

CCSDS_OMM_VERS = 2.0
CREATION_DATE  = 
ORIGINATOR     = 

OBJECT_NAME    = STARLINK-35919
OBJECT_ID      = 2025-283L
CENTER_NAME    = EARTH
REF_FRAME      = TEME
TIME_SYSTEM    = UTC
MEAN_ELEMENT_THEORY = SGP/SGP4

EPOCH          = 2025-12-24T20:00:01.000224
MEAN_MOTION    = 15.63595672
ECCENTRICITY   = .0001666
INCLINATION    = 53.1602
RA_OF_ASC_NODE = 13.4552
ARG_OF_PERICENTER = 101.2322
MEAN_ANOMALY   = 163.8928

EPHEMERIS_TYPE = 0
CLASSIFICATION_TYPE = U
NORAD_CAT_ID   = 66888
ELEMENT_SET_NO = 999
REV_AT_EPOCH   = 437
BSTAR          = -.2316E-1
MEAN_MOTION_DOT = -.1936371E-1
MEAN_MOTION_DDOT = 0

CCSDS_OMM_VERS = 2.0
CREATION_DATE  = 
ORIGINATOR     = 

OBJECT_NAME    = STARLINK-35852
OBJECT_ID      = 2025-283M
CENTER_NAME    = EARTH
REF_FRAME      = TEME
TIME_SYSTEM    = UTC
MEAN_ELEMENT_THEORY = SGP/SGP4

EPOCH          = 2025-12-24T20:00:01.000224
MEAN_MOTION    = 15.63628889
ECCENTRICITY   = .0001307
INCLINATION    = 53.1602
RA_OF_ASC_NODE = 13.4508
ARG_OF_PERICENTER = 94.8743
MEAN_ANOMALY   = 172.1410

EPHEMERIS_TYPE = 0
CLASSIFICATION_TYPE = U
NORAD_CAT_ID   = 66889
ELEMENT_SET_NO = 999
REV_AT_EPOCH   = 437
BSTAR          = -.23529E-1
MEAN_MOTION_DOT = -.1965541E-1
MEAN_MOTION_DDOT = 0

CCSDS_OMM_VERS = 2.0
CREATION_DATE  = 
ORIGINATOR     = 

OBJECT_NAME    = STARLINK-35885
OBJECT_ID      = 2025-283N
CENTER_NAME    = EARTH
REF_FRAME      = TEME
TIME_SYSTEM    = UTC
MEAN_ELEMENT_THEORY = SGP/SGP4

EPOCH          = 2025-12-24T20:00:01.000224
MEAN_MOTION    = 15.63630572
ECCENTRICITY   = .0001276
INCLINATION    = 53.1601
RA_OF_ASC_NODE = 13.4471
ARG_OF_PERICENTER = 94.8401
MEAN_ANOMALY   = 174.0906

EPHEMERIS_TYPE = 0
CLASSIFICATION_TYPE = U
NORAD_CAT_ID   = 66890
ELEMENT_SET_NO = 999
REV_AT_EPOCH   = 437
BSTAR          = -.2355E-1
MEAN_MOTION_DOT = -.1967169E-1
MEAN_MOTION_DDOT = 0

CCSDS_OMM_VERS = 2.0
CREATION_DATE  = 
ORIGINATOR     = 

OBJECT_NAME    = STARLINK-35855
OBJECT_ID      = 2025-283P
CENTER_NAME    = EARTH
REF_FRAME      = TEME
TIME_SYSTEM    = UTC
MEAN_ELEMENT_THEORY = SGP/SGP4

EPOCH          = 2025-12-24T20:00:01.000224
MEAN_MOTION    = 15.63633457
ECCENTRICITY   = .000127
INCLINATION    = 53.1601
RA_OF_ASC_NODE = 13.4429
ARG_OF_PERICENTER = 94.6826
MEAN_ANOMALY   = 176.1638

EPHEMERIS_TYPE = 0
CLASSIFICATION_TYPE = U
NORAD_CAT_ID   = 66891
ELEMENT_SET_NO = 999
REV_AT_EPOCH   = 437
BSTAR          = -.23607E-1
MEAN_MOTION_DOT = -.1971568E-1
MEAN_MOTION_DDOT = 0

