STARLINK-35844          
1 66880U 25283C   25358.83334491 -.01967448  00000+0 -23552-1 0  9994
2 66880  53.1601  13.4918 0001384  95.3074 152.5381 15.63631074  4371
STARLINK-35860          
1 66881U 25283D   25358.83334491 -.01962103  00000+0 -23482-1 0  9990
2 66881  53.1600  13.4833 0001485  92.8342 158.8454 15.63627348  4378
STARLINK-35912          
1 66882U 25283E   25358.83334491 -.01973271  00000+0 -23628-1 0  9991
2 66882  53.1602  13.4805 0001407  91.3934 162.2004 15.63634301  4372
STARLINK-35947          
1 66883U 25283F   25358.83334491 -.01967074  00000+0 -23549-1 0  9998
2 66883  53.1601  13.4763 0001284  92.7960 162.7171 15.63630334  4420
STARLINK-36057          
1 66884U 25283G   25358.83334491 -.01982181  00000+0 -23746-1 0  9994
2 66884  53.1599  13.4680 0001376  92.4371 166.9098 15.63637948  4376
STARLINK-35954          
1 66885U 25283H   25358.83334491 -.01973868  00000+0 -23639-1 0  9998
2 66885  53.1600  13.4718 0001437  94.3379 163.0967 15.63630959  4377
STARLINK-35900          
1 66886U 25283J   25358.83334491 -.01981767  00000+0 -23741-1 0  9990
2 66886  53.1601  13.4632 0001481  92.5500 168.7152 15.63636835  4376
STARLINK-35925          
1 66887U 25283K   25358.83334491 -.01971475  00000+0 -23605-1 0  9995
2 66887  53.1602  13.4596 0001347  97.1051 166.0745 15.63633174  4372
STARLINK-35919          
1 66888U 25283L   25358.83334491 -.01936371  00000+0 -23160-1 0  9998
2 66888  53.1602  13.4552 0001666 101.2322 163.8928 15.63595672  4375
STARLINK-35852          
1 66889U 25283M   25358.83334491 -.01965541  00000+0 -23529-1 0  9999
2 66889  53.1602  13.4508 0001307  94.8743 172.1410 15.63628889  4379
STARLINK-35885          
1 66890U 25283N   25358.83334491 -.01967169  00000+0 -23550-1 0  9993
2 66890  53.1601  13.4471 0001276  94.8401 174.0906 15.63630572  4378
STARLINK-35855          
1 66891U 25283P   25358.83334491 -.01971568  00000+0 -23607-1 0  9995
2 66891  53.1601  13.4429 0001270  94.6826 176.1638 15.63633457  4375
